APRIZESAT 2             
1 28366U 04025A   19359.69716449  .00000003  00000-0  14732-4 0  9993
2 28366  98.2836 252.4884 0107826 170.5339 189.7914 14.36690572811909
SAUDICOMSAT 1           
1 28369U 04025D   19359.81215801  .00000032  00000-0  18934-4 0  9996
2 28369  98.3164 306.8809 0034748  69.7766 290.7160 14.52525817820513
SAUDICOMSAT 2           
1 28370U 04025E   19360.06821882  .00000025  00000-0  19126-4 0  9995
2 28370  98.4114 303.5912 0056938 224.7410 134.9183 14.47459662817815
APRIZESAT 1             
1 28372U 04025G   19359.87025162  .00000025  00000-0  18195-4 0  9996
2 28372  98.3706 304.7825 0046934 151.0868 209.2941 14.49609786819044
NANOSAT-1               
1 28493U 04049B   19359.83279533  .00000053  00000-0  16026-4 0  9997
2 28493  98.1282  84.3981 0003437 314.2331  45.8594 14.73543710806649
SAUDICOMSAT 7           
1 31119U 07012C   19359.83205858  .00000039  00000-0  17057-4 0  9997
2 31119  98.0758 304.5148 0061059  46.6422 313.9843 14.61759474676541
SAUDICOMSAT 6           
1 31121U 07012E   19359.85386321  .00000030  00000-0  16247-4 0  9998
2 31121  98.1312 299.1008 0077574 128.7683 232.0481 14.58558802675147
SAUDICOMSAT 5           
1 31124U 07012H   19359.85875663  .00000029  00000-0  14829-4 0  9995
2 31124  98.0397 307.3853 0051792   4.0460 356.1151 14.63460927677347
SAUDICOMSAT 3           
1 31125U 07012J   19359.85134324  .00000057  00000-0  19462-4 0  9997
2 31125  98.0008 310.3797 0042509 321.5102  38.3072 14.65213142678107
SAUDICOMSAT 4           
1 31127U 07012L   19360.08149402  .00000039  00000-0  17619-4 0  9991
2 31127  98.1040 302.4478 0069353  84.6360 276.2748 14.60272931675941
APRIZESAT 4             
1 35684U 09041D   19359.85805507  .00000043  00000-0  13435-4 0  9992
2 35684  98.2525 328.7872 0047545  15.0110 345.2499 14.79243754561373
APRIZESAT 3             
1 35686U 09041F   19360.36119883  .00000053  00000-0  12533-4 0  9996
2 35686  98.2095  46.6949 0071647 255.1459 104.1813 14.87350178564251
AISSAT 1                
1 36797U 10035C   19359.90060049  .00000133  00000-0  21768-4 0  9991
2 36797  98.1467 139.2057 0010205 227.3134 132.7222 14.86249639512061
S-NET D                 
1 43186U 18014G   19359.89768476  .00000691  00000-0  65428-4 0  9993
2 43186  97.7028 265.4722 0012773  89.3377 270.9308 14.96729695103586
S-NET B                 
1 43187U 18014H   19359.69693926  .00000702  00000-0  66433-4 0  9999
2 43187  97.7025 265.2579 0012761  89.9138 270.3546 14.96729386103552
S-NET A                 
1 43188U 18014J   19359.69677654  .00000704  00000-0  66581-4 0  9996
2 43188  97.7028 265.2809 0012756  90.0049 270.2635 14.96729030103554
S-NET C                 
1 43189U 18014K   19359.69713939  .00000697  00000-0  65989-4 0  9996
2 43189  97.7025 265.2545 0012758  89.8659 270.4024 14.96728783102102
